ONEWEB-0160             
1 48060U 21025U   23285.56205175  .00000273  00000+0  71362-3 0  9992
2 48060  87.9034 154.9590 0002689  77.7609 282.3821 13.13468685125093
ONEWEB-0163             
1 48061U 21025V   23285.62341576  .00000422  00000+0  11193-2 0  9997
2 48061  87.9041 154.9384 0001474  75.4756 284.6537 13.13469791125225
ONEWEB-0159             
1 48062U 21025W   23285.61282352 -.00000067  00000+0 -21886-3 0  9991
2 48062  87.8965 154.9289 0001618  87.0334 273.0980 13.13472719125144
ONEWEB-0164             
1 48063U 21025X   23285.59378870 -.00000526  00000+0 -14746-2 0  9996
2 48063  87.9043 154.9384 0001746  66.9151 293.2162 13.13472654125126
ONEWEB-0167             
1 48064U 21025Y   23285.62447914  .00000307  00000+0  80636-3 0  9994
2 48064  87.9042 154.9422 0001438  76.6170 283.5119 13.13468005125114
ONEWEB-0166             
1 48065U 21025Z   23285.57050966  .00000113  00000+0  27553-3 0  9990
2 48065  87.9039 154.9462 0001546  84.4558 275.6747 13.13472231125184
ONEWEB-0151             
1 48066U 21025AA  23285.72498849  .00000096  00000+0  22710-3 0  9994
2 48066  87.9042 154.9231 0001769  67.4774 292.6542 13.13470500125157
ONEWEB-0170             
1 48067U 21025AB  23285.65517880  .00000194  00000+0  49662-3 0  9998
2 48067  87.9042 154.9363 0002229  64.0727 296.0632 13.13468578125090
